[{"OBJECT_NAME":"STARLINK-3969","OBJECT_ID":"2022-051U","EPOCH":"2026-03-09T12:58:45.806016","MEAN_MOTION":15.08827185,"ECCENTRICITY":0.00010558,"INCLINATION":53.2167,"RA_OF_ASC_NODE":129.79,"ARG_OF_PERICENTER":99.3768,"MEAN_ANOMALY":260.7343,"EPHEMERIS_TYPE":0,"CLASSIFICATION_TYPE":"U","NORAD_CAT_ID":52551,"ELEMENT_SET_NO":999,"REV_AT_EPOCH":21142,"BSTAR":0.00013659308,"MEAN_MOTION_DOT":1.886e-5,"MEAN_MOTION_DDOT":0},{"OBJECT_NAME":"YUNYAO-1 47","OBJECT_ID":"2025-059E","EPOCH":"2026-03-09T22:46:15.708288","MEAN_MOTION":15.10508558,"ECCENTRICITY":0.00172664,"INCLINATION":97.6066,"RA_OF_ASC_NODE":250.9227,"ARG_OF_PERICENTER":135.6694,"MEAN_ANOMALY":224.5922,"EPHEMERIS_TYPE":0,"CLASSIFICATION_TYPE":"U","NORAD_CAT_ID":63348,"ELEMENT_SET_NO":999,"REV_AT_EPOCH":5331,"BSTAR":0.00029014568,"MEAN_MOTION_DOT":4.732e-5,"MEAN_MOTION_DDOT":0}]
